CCSDS_OMM_VERS = 2.0
CREATION_DATE  = 
ORIGINATOR     = 

OBJECT_NAME    = KUIPER-00197
OBJECT_ID      = 2026-030F
CENTER_NAME    = EARTH
REF_FRAME      = TEME
TIME_SYSTEM    = UTC
MEAN_ELEMENT_THEORY = SGP/SGP4

EPOCH          = 2026-03-01T11:45:24.763680
MEAN_MOTION    = 15.35981779
ECCENTRICITY   = .0001103
INCLINATION    = 51.8824
RA_OF_ASC_NODE = 258.6150
ARG_OF_PERICENTER = 71.9470
MEAN_ANOMALY   = 288.1637

EPHEMERIS_TYPE = 0
CLASSIFICATION_TYPE = U
NORAD_CAT_ID   = 67769
ELEMENT_SET_NO = 999
REV_AT_EPOCH   = 383
BSTAR          = .7567E-3
MEAN_MOTION_DOT = .26628E-3
MEAN_MOTION_DDOT = 0

CCSDS_OMM_VERS = 2.0
CREATION_DATE  = 
ORIGINATOR     = 

OBJECT_NAME    = KUIPER-00198
OBJECT_ID      = 2026-030G
CENTER_NAME    = EARTH
REF_FRAME      = TEME
TIME_SYSTEM    = UTC
MEAN_ELEMENT_THEORY = SGP/SGP4

EPOCH          = 2026-03-01T10:17:23.451360
MEAN_MOTION    = 15.35620930
ECCENTRICITY   = .0002533
INCLINATION    = 51.8798
RA_OF_ASC_NODE = 258.9517
ARG_OF_PERICENTER = 28.9617
MEAN_ANOMALY   = 331.1509

EPHEMERIS_TYPE = 0
CLASSIFICATION_TYPE = U
NORAD_CAT_ID   = 67770
ELEMENT_SET_NO = 999
REV_AT_EPOCH   = 382
BSTAR          = .10703E-2
MEAN_MOTION_DOT = .37441E-3
MEAN_MOTION_DDOT = 0

CCSDS_OMM_VERS = 2.0
CREATION_DATE  = 
ORIGINATOR     = 

OBJECT_NAME    = KUIPER-00199
OBJECT_ID      = 2026-030H
CENTER_NAME    = EARTH
REF_FRAME      = TEME
TIME_SYSTEM    = UTC
MEAN_ELEMENT_THEORY = SGP/SGP4

EPOCH          = 2026-03-01T12:16:21.104832
MEAN_MOTION    = 15.33998902
ECCENTRICITY   = .0010092
INCLINATION    = 51.8797
RA_OF_ASC_NODE = 258.7482
ARG_OF_PERICENTER = 37.9570
MEAN_ANOMALY   = 322.2125

EPHEMERIS_TYPE = 0
CLASSIFICATION_TYPE = U
NORAD_CAT_ID   = 67771
ELEMENT_SET_NO = 999
REV_AT_EPOCH   = 383
BSTAR          = .91885E-3
MEAN_MOTION_DOT = .30472E-3
MEAN_MOTION_DDOT = 0

CCSDS_OMM_VERS = 2.0
CREATION_DATE  = 
ORIGINATOR     = 

OBJECT_NAME    = KUIPER-00200
OBJECT_ID      = 2026-030J
CENTER_NAME    = EARTH
REF_FRAME      = TEME
TIME_SYSTEM    = UTC
MEAN_ELEMENT_THEORY = SGP/SGP4

EPOCH          = 2026-03-01T10:02:08.421792
MEAN_MOTION    = 15.36618169
ECCENTRICITY   = .0001984
INCLINATION    = 51.8807
RA_OF_ASC_NODE = 258.8839
ARG_OF_PERICENTER = 196.6253
MEAN_ANOMALY   = 163.4669

EPHEMERIS_TYPE = 0
CLASSIFICATION_TYPE = U
NORAD_CAT_ID   = 67772
ELEMENT_SET_NO = 999
REV_AT_EPOCH   = 382
BSTAR          = .11446E-2
MEAN_MOTION_DOT = .41401E-3
MEAN_MOTION_DDOT = 0

CCSDS_OMM_VERS = 2.0
CREATION_DATE  = 
ORIGINATOR     = 

OBJECT_NAME    = KUIPER-00203
OBJECT_ID      = 2026-030K
CENTER_NAME    = EARTH
REF_FRAME      = TEME
TIME_SYSTEM    = UTC
MEAN_ELEMENT_THEORY = SGP/SGP4

EPOCH          = 2026-03-01T12:00:02.998944
MEAN_MOTION    = 15.29349892
ECCENTRICITY   = .0012032
INCLINATION    = 51.8800
RA_OF_ASC_NODE = 258.8537
ARG_OF_PERICENTER = 40.1400
MEAN_ANOMALY   = 224.2341

EPHEMERIS_TYPE = 0
CLASSIFICATION_TYPE = U
NORAD_CAT_ID   = 67773
ELEMENT_SET_NO = 999
REV_AT_EPOCH   = 239
BSTAR          = -.79798E-2
MEAN_MOTION_DOT = -.224604E-2
MEAN_MOTION_DDOT = 0

CCSDS_OMM_VERS = 2.0
CREATION_DATE  = 
ORIGINATOR     = 

OBJECT_NAME    = KUIPER-00205
OBJECT_ID      = 2026-030L
CENTER_NAME    = EARTH
REF_FRAME      = TEME
TIME_SYSTEM    = UTC
MEAN_ELEMENT_THEORY = SGP/SGP4

EPOCH          = 2026-03-01T10:12:44.217792
MEAN_MOTION    = 15.35967438
ECCENTRICITY   = .0001974
INCLINATION    = 51.8800
RA_OF_ASC_NODE = 258.9300
ARG_OF_PERICENTER = 354.1612
MEAN_ANOMALY   = 5.9351

EPHEMERIS_TYPE = 0
CLASSIFICATION_TYPE = U
NORAD_CAT_ID   = 67774
ELEMENT_SET_NO = 999
REV_AT_EPOCH   = 382
BSTAR          = .10762E-2
MEAN_MOTION_DOT = .38075E-3
MEAN_MOTION_DDOT = 0

CCSDS_OMM_VERS = 2.0
CREATION_DATE  = 
ORIGINATOR     = 

OBJECT_NAME    = KUIPER-00208
OBJECT_ID      = 2026-030M
CENTER_NAME    = EARTH
REF_FRAME      = TEME
TIME_SYSTEM    = UTC
MEAN_ELEMENT_THEORY = SGP/SGP4

EPOCH          = 2026-03-01T10:56:03.935904
MEAN_MOTION    = 15.32830856
ECCENTRICITY   = .0014306
INCLINATION    = 51.8826
RA_OF_ASC_NODE = 259.1291
ARG_OF_PERICENTER = 38.4565
MEAN_ANOMALY   = 321.7437

EPHEMERIS_TYPE = 0
CLASSIFICATION_TYPE = U
NORAD_CAT_ID   = 67775
ELEMENT_SET_NO = 999
REV_AT_EPOCH   = 382
BSTAR          = .71806E-3
MEAN_MOTION_DOT = .22872E-3
MEAN_MOTION_DDOT = 0

CCSDS_OMM_VERS = 2.0
CREATION_DATE  = 
ORIGINATOR     = 

OBJECT_NAME    = KUIPER-00209
OBJECT_ID      = 2026-030N
CENTER_NAME    = EARTH
REF_FRAME      = TEME
TIME_SYSTEM    = UTC
MEAN_ELEMENT_THEORY = SGP/SGP4

EPOCH          = 2026-03-01T12:00:02.998944
MEAN_MOTION    = 15.31409943
ECCENTRICITY   = .0013022
INCLINATION    = 51.8822
RA_OF_ASC_NODE = 258.9294
ARG_OF_PERICENTER = 42.2526
MEAN_ANOMALY   = 194.8608

EPHEMERIS_TYPE = 0
CLASSIFICATION_TYPE = U
NORAD_CAT_ID   = 67776
ELEMENT_SET_NO = 999
REV_AT_EPOCH   = 322
BSTAR          = .20553E-2
MEAN_MOTION_DOT = .63586E-3
MEAN_MOTION_DDOT = 0

CCSDS_OMM_VERS = 2.0
CREATION_DATE  = 
ORIGINATOR     = 

OBJECT_NAME    = KUIPER-00213
OBJECT_ID      = 2026-030P
CENTER_NAME    = EARTH
REF_FRAME      = TEME
TIME_SYSTEM    = UTC
MEAN_ELEMENT_THEORY = SGP/SGP4

EPOCH          = 2026-03-01T12:30:09.084672
MEAN_MOTION    = 15.32528073
ECCENTRICITY   = .0014142
INCLINATION    = 51.8800
RA_OF_ASC_NODE = 258.8087
ARG_OF_PERICENTER = 40.0523
MEAN_ANOMALY   = 320.1502

EPHEMERIS_TYPE = 0
CLASSIFICATION_TYPE = U
NORAD_CAT_ID   = 67777
ELEMENT_SET_NO = 999
REV_AT_EPOCH   = 383
BSTAR          = .99492E-3
MEAN_MOTION_DOT = .31568E-3
MEAN_MOTION_DDOT = 0

CCSDS_OMM_VERS = 2.0
CREATION_DATE  = 
ORIGINATOR     = 

OBJECT_NAME    = KUIPER-00214
OBJECT_ID      = 2026-030Q
CENTER_NAME    = EARTH
REF_FRAME      = TEME
TIME_SYSTEM    = UTC
MEAN_ELEMENT_THEORY = SGP/SGP4

EPOCH          = 2026-03-01T10:05:03.715296
MEAN_MOTION    = 15.36390867
ECCENTRICITY   = .0001487
INCLINATION    = 51.8836
RA_OF_ASC_NODE = 258.9001
ARG_OF_PERICENTER = 189.6379
MEAN_ANOMALY   = 170.4579

EPHEMERIS_TYPE = 0
CLASSIFICATION_TYPE = U
NORAD_CAT_ID   = 67778
ELEMENT_SET_NO = 999
REV_AT_EPOCH   = 382
BSTAR          = .9848E-3
MEAN_MOTION_DOT = .35275E-3
MEAN_MOTION_DDOT = 0

CCSDS_OMM_VERS = 2.0
CREATION_DATE  = 
ORIGINATOR     = 

OBJECT_NAME    = KUIPER-00215
OBJECT_ID      = 2026-030R
CENTER_NAME    = EARTH
REF_FRAME      = TEME
TIME_SYSTEM    = UTC
MEAN_ELEMENT_THEORY = SGP/SGP4

EPOCH          = 2026-03-01T10:40:33.628224
MEAN_MOTION    = 15.34058558
ECCENTRICITY   = .000969
INCLINATION    = 51.8829
RA_OF_ASC_NODE = 259.0601
ARG_OF_PERICENTER = 36.8926
MEAN_ANOMALY   = 323.2725

EPHEMERIS_TYPE = 0
CLASSIFICATION_TYPE = U
NORAD_CAT_ID   = 67779
ELEMENT_SET_NO = 999
REV_AT_EPOCH   = 382
BSTAR          = .71947E-3
MEAN_MOTION_DOT = .23798E-3
MEAN_MOTION_DDOT = 0

CCSDS_OMM_VERS = 2.0
CREATION_DATE  = 
ORIGINATOR     = 

OBJECT_NAME    = KUIPER-00218
OBJECT_ID      = 2026-030S
CENTER_NAME    = EARTH
REF_FRAME      = TEME
TIME_SYSTEM    = UTC
MEAN_ELEMENT_THEORY = SGP/SGP4

EPOCH          = 2026-03-01T10:29:27.112704
MEAN_MOTION    = 15.34822948
ECCENTRICITY   = .0005932
INCLINATION    = 51.8820
RA_OF_ASC_NODE = 259.0085
ARG_OF_PERICENTER = 29.1147
MEAN_ANOMALY   = 331.0169

EPHEMERIS_TYPE = 0
CLASSIFICATION_TYPE = U
NORAD_CAT_ID   = 67780
ELEMENT_SET_NO = 999
REV_AT_EPOCH   = 382
BSTAR          = .55367E-3
MEAN_MOTION_DOT = .18652E-3
MEAN_MOTION_DDOT = 0

